COMMENT,ORIGINATOR,NORAD_CAT_ID,OBJECT_NAME,OBJECT_TYPE,CLASSIFICATION_TYPE,INTLDES,EPOCH,EPOCH_MICROSECONDS,MEAN_MOTION,ECCENTRICITY,INCLINATION,RA_OF_ASC_NODE,ARG_OF_PERICENTER,MEAN_ANOMALY,EPHEMERIS_TYPE,ELEMENT_SET_NO,REV_AT_EPOCH,BSTAR,MEAN_MOTION_DOT,MEAN_MOTION_DDOT,FILE,TLE_LINE0,TLE_LINE1,TLE_LINE2,OBJECT_ID,OBJECT_NUMBER,SEMIMAJOR_AXIS,PERIOD,APOGEE,PERIGEE
"GENERATED VIA SPACETRACK.ORG API","JSPOC","40017","TABLETSAT AURORA","PAYLOAD","U","14033H","2016-01-12 19:06:39","675456","14.91990582","0.0022581","97.9533","282.7056","250.1918","109.6826","0","999","8521","0.00014199","1.386e-05","0","1979596","0 TABLETSAT AURORA","1 40017U 14033H   16012.79629254  .00001386  00000-0  14199-3 0  9992","2 40017  97.9533 282.7056 0022581 250.1918 109.6826 14.91990582 85210","2014-033H","40017","6969.866","96.515","607.470","575.992"
"GENERATED VIA SPACETRACK.ORG API","JSPOC","12323","COSMOS 1253","PAYLOAD","U","81022D","2016-01-12 19:06:49","525056","12.45789902","0.0018343","74.0301","123.5486","329.3528","200.1099","0","999","58528","9.5272e-05","-2e-08","0","1979616","0 COSMOS 1253","1 12323U 81022D   16012.79640654 -.00000002  00000-0  95272-4 0  9997","2 12323  74.0301 123.5486 0018343 329.3528 200.1099 12.45789902585284","1981-022D","12323","7860.291","115.589","1496.574","1467.738"
"GENERATED VIA SPACETRACK.ORG API","JSPOC","26987","COSMOS 2382 (GLONASS)","PAYLOAD","U","01053A","2016-01-12 19:07:07","91040","2.13105392","0.0006179","62.9467","193.7985","183.9541","21.3779","0","999","10979","0","9e-07","0","1979855","0 COSMOS 2382 (GLONASS)","1 26987U 01053A   16012.79660985 +.00000090 +00000-0 +00000-0 0  9990","2 26987 062.9467 193.7985 0006179 183.9541 021.3779 02.13105392109795","2001-053A","26987","25507.753","675.721","19145.379","19113.857"
"GENERATED VIA SPACETRACK.ORG API","JSPOC","39177","COSMOS 2486","PAYLOAD","U","13028A","2016-01-12 19:07:10","763904","14.53131479","0.0007329","98.2052","86.5189","304.7743","55.2753","0","999","13769","3.3262e-05","9.3e-07","0","1979591","0 COSMOS 2486","1 39177U 13028A   16012.79665236  .00000093  00000-0  33262-4 0  9997","2 39177  98.2052  86.5189 0007329 304.7743  55.2753 14.53131479137692","2013-028A","39177","7093.576","99.096","720.640","710.242"
"GENERATED VIA SPACETRACK.ORG API","JSPOC","3605","OPS 7684","PAYLOAD","U","68112B","2016-01-12 19:07:14","160288","12.60351188","0.0054223","80.3608","14.985","276.494","198.0574","0","999","16424","0.00029857","5.8e-07","0","1979855","0 OPS 7684","1  3605U 68112B   16012.79669167 +.00000058 +00000-0 +29857-3 0  9990","2  3605 080.3608 014.9850 0054223 276.4940 198.0574 12.60351188164242","1968-112B","3605","7799.632","114.253","1463.789","1379.205"
"GENERATED VIA SPACETRACK.ORG API","JSPOC","11047","COSMOS 1038","PAYLOAD","U","78091E","2016-01-12 19:07:18","972768","12.45884086","0.0005447","74.0355","134.2402","54.5889","99.6542","0","999","28654","6.7795e-05","-6e-08","0","1979855","0 COSMOS 1038","1 11047U 78091E   16012.79674737 -.00000006 +00000-0 +67795-4 0  9993","2 11047 074.0355 134.2402 0005447 054.5889 099.6542 12.45884086286540","1978-091E","11047","7859.895","115.580","1486.041","1477.478"
"GENERATED VIA SPACETRACK.ORG API","JSPOC","28230","GP-B","PAYLOAD","U","04014A","2016-01-12 19:07:31","179360","14.78340358","0.0002122","89.8697","131.3366","104.7118","255.434","0","999","8926","6.279e-05","4.72e-06","0","1979855","0 GP-B","1 28230U 04014A   16012.79688865 +.00000472 +00000-0 +62790-4 0  9992","2 28230 089.8697 131.3366 0002122 104.7118 255.4340 14.78340358089267","2004-014A","28230","7012.704","97.406","636.057","633.081"
"GENERATED VIA SPACETRACK.ORG API","JSPOC","10702","LANDSAT 3","PAYLOAD","U","78026A","2016-01-12 19:07:44","175648","13.96634276","0.0014075","98.8499","56.8396","212.7677","277.1213","0","999","92984","0.00010846","1.08e-06","0","1979855","0 LANDSAT 3","1 10702U 78026A   16012.79703907 +.00000108 +00000-0 +10846-3 0  9996","2 10702 098.8499 056.8396 0014075 212.7677 277.1213 13.96634276929847","1978-026A","10702","7283.610","103.105","915.727","895.223"
"GENERATED VIA SPACETRACK.ORG API","JSPOC","25994","TERRA","PAYLOAD","U","99068A","2016-01-12 19:08:18","164544","14.5710824","9.78e-05","98.2055","89.3295","89.6475","270.4828","0","999","85474","5.2415e-05","1.91e-06","0","1979571","0 TERRA","1 25994U 99068A   16012.79743246  .00000191  00000-0  52415-4 0  9995","2 25994  98.2055  89.3295 0000978  89.6475 270.4828 14.57108240854740","1999-068A","25994","7080.663","98.825","703.221","701.836"
"GENERATED VIA SPACETRACK.ORG API","JSPOC","40032","QB50P2","PAYLOAD","U","14033Y","2016-01-12 19:08:25","242432","14.8727587","0.0011307","97.9385","277.8119","205.5981","154.4676","0","999","8492","0.00014991","1.297e-05","0","1979598","0 QB50P2","1 40032U 14033Y   16012.79751438  .00001297  00000-0  14991-3 0  9990","2 40032  97.9385 277.8119 0011307 205.5981 154.4676 14.87275870 84924","2014-033Y","40032","6984.588","96.821","614.350","598.555"
"GENERATED VIA SPACETRACK.ORG API","JSPOC","27939","MOZHAYETS 4","PAYLOAD","U","03042A","2016-01-12 19:08:36","625632","14.66287234","0.0014393","97.8637","170.7148","81.8607","278.423","0","999","65690","8.9906e-05","4.51e-06","0","1979559","0 MOZHAYETS 4","1 27939U 03042A   16012.79764613  .00000451  00000-0  89906-4 0  9998","2 27939  97.8637 170.7148 0014393  81.8607 278.4230 14.66287234656905","2003-042A","27939","7051.082","98.207","683.096","662.799"
"GENERATED VIA SPACETRACK.ORG API","JSPOC","29093","CZ-4B R/B","ROCKET BODY","U","06015B","2016-01-12 19:08:42","576864","15.34775862","0.0073329","97.4869","107.5923","27.7254","332.7868","0","999","53741","0.00020773","7.557e-05","0","1979546","0 CZ-4B R/B","1 29093U 06015B   16012.79771501  .00007557  00000-0  20773-3 0  9998","2 29093  97.4869 107.5923 0073329  27.7254 332.7868 15.34775862537411","2006-015B","29093","6839.723","93.824","511.743","411.433"
"GENERATED VIA SPACETRACK.ORG API","JSPOC","31118","SAUDISAT 3","PAYLOAD","U","07012B","2016-01-12 19:08:42","681408","14.68961714","0.0015939","97.7226","28.7598","134.8764","225.3727","0","999","46846","2.4856e-05","1e-06","0","1979569","0 SAUDISAT 3","1 31118U 07012B   16012.79771622  .00000100  00000-0  24856-4 0  9995","2 31118  97.7226  28.7598 0015939 134.8764 225.3727 14.68961714468461","2007-012B","31118","7042.521","98.028","675.611","653.161"
"GENERATED VIA SPACETRACK.ORG API","JSPOC","40057","VELOX 1","PAYLOAD","U","14034E","2016-01-12 19:08:58","955712","14.76397672","0.0010111","98.2032","99.2517","290.8486","69.1653","0","999","8280","0.00014833","9.78e-06","0","1979603","0 VELOX 1","1 40057U 14034E   16012.79790458  .00000978  00000-0  14833-3 0  9993","2 40057  98.2032  99.2517 0010111 290.8486  69.1653 14.76397672 82806","2014-034E","40057","7018.855","97.534","647.816","633.623"
"GENERATED VIA SPACETRACK.ORG API","JSPOC","39161","ESTCUBE 1","PAYLOAD","U","13021C","2016-01-12 19:09:03","191904","14.71494356","0.0010017","98.0604","98.7979","14.7682","345.3824","0","999","14406","9.46e-05","5.37e-06","0","1979525","0 ESTCUBE 1","1 39161U 13021C   16012.79795361  .00000537  00000-0  94600-4 0  9992","2 39161  98.0604  98.7979 0010017  14.7682 345.3824 14.71494356144063","2013-021C","39161","7034.438","97.859","663.349","649.257"
"GENERATED VIA SPACETRACK.ORG API","JSPOC","13161","COSMOS 1358","PAYLOAD","U","82040B","2016-01-12 19:09:08","769888","12.53939504","0.0042436","74.0089","217.5483","235.2496","263.2414","0","999","54193","-5.1669e-05","-2.5e-07","0","1979855","0 COSMOS 1358","1 13161U 82040B   16012.79801817 -.00000025 +00000-0 -51669-4 0  9997","2 13161 074.0089 217.5483 0042436 235.2496 263.2414 12.53939504541937","1982-040B","13161","7826.197","114.838","1481.273","1414.850"
"GENERATED VIA SPACETRACK.ORG API","JSPOC","36110","YAOGAN 7","PAYLOAD","U","09069A","2016-01-12 19:09:11","894976","14.75236272","0.0024217","98.1411","159.9866","343.1725","16.8682","0","999","32801","-3.5646e-05","-2.96e-06","0","1979631","0 YAOGAN 7","1 36110U 09069A   16012.79805434 -.00000296  00000-0 -35646-4 0  9992","2 36110  98.1411 159.9866 0024217 343.1725  16.8682 14.75236272328016","2009-069A","36110","7022.538","97.611","661.409","627.396"
"GENERATED VIA SPACETRACK.ORG API","JSPOC","17177","COSMOS 1803","PAYLOAD","U","86094A","2016-01-12 19:09:13","696416","12.41552222","0.0004416","82.6049","179.8393","108.5569","348.7032","0","999","31957","-5.8219e-05","2e-08","0","1979556","0 COSMOS 1803","1 17177U 86094A   16012.79807519  .00000002  00000-0 -58219-4 0  9998","2 17177  82.6049 179.8393 0004416 108.5569 348.7032 12.41552222319571","1986-094A","17177","7878.166","115.983","1503.510","1496.552"
"GENERATED VIA SPACETRACK.ORG API","JSPOC","23441","COSMOS 2299","PAYLOAD","U","94086A","2016-01-12 19:09:18","300672","12.63701389","0.0007473","82.5668","216.3046","207.4746","152.5951","0","999","97065","4.7037e-05","1.9e-07","0","1979855","0 COSMOS 2299","1 23441U 94086A   16012.79812848 +.00000019 +00000-0 +47037-4 0  9993","2 23441 082.5668 216.3046 0007473 207.4746 152.5951 12.63701389970659","1994-086A","23441","7785.841","113.950","1413.524","1401.887"
"GENERATED VIA SPACETRACK.ORG API","JSPOC","35752","NAVSTAR 64 (USA 206)","PAYLOAD","U","09043A","2016-01-12 19:09:22","789152","2.00558562","0.0044788","54.2256","180.6536","25.3456","222.2739","0","999","4695","0","7.3e-07","0","1979512","0 NAVSTAR 64 (USA 206)","1 35752U 09043A   16012.79818043  .00000073  00000-0  00000+0 0  9997","2 35752  54.2256 180.6536 0044788  25.3456 222.2739  2.00558562 46957","2009-043A","35752","26560.792","717.994","20301.618","20063.697"
